[{"OBJECT_NAME":"STARLINK-5330","OBJECT_ID":"2023-010P","EPOCH":"2026-03-09T23:31:39.858816","MEAN_MOTION":14.98355549,"ECCENTRICITY":0.00030446,"INCLINATION":70,"RA_OF_ASC_NODE":43.5527,"ARG_OF_PERICENTER":271.5862,"MEAN_ANOMALY":88.4948,"EPHEMERIS_TYPE":0,"CLASSIFICATION_TYPE":"U","NORAD_CAT_ID":55282,"ELEMENT_SET_NO":999,"REV_AT_EPOCH":17282,"BSTAR":-0.00024546115,"MEAN_MOTION_DOT":-3.023e-5,"MEAN_MOTION_DDOT":0},{"OBJECT_NAME":"CZ-4C R\/B","OBJECT_ID":"2021-109B","EPOCH":"2026-03-09T22:38:24.916416","MEAN_MOTION":14.75647247,"ECCENTRICITY":0.01171981,"INCLINATION":98.2159,"RA_OF_ASC_NODE":140.2327,"ARG_OF_PERICENTER":108.8459,"MEAN_ANOMALY":252.5502,"EPHEMERIS_TYPE":0,"CLASSIFICATION_TYPE":"U","NORAD_CAT_ID":49496,"ELEMENT_SET_NO":999,"REV_AT_EPOCH":23090,"BSTAR":0.00015081956,"MEAN_MOTION_DOT":1.092e-5,"MEAN_MOTION_DDOT":0}]
